[{"OBJECT_NAME":"JILIN-1 GAOFEN 03D12","OBJECT_ID":"2022-019T","EPOCH":"2026-03-09T23:55:09.134400","MEAN_MOTION":15.69542894,"ECCENTRICITY":0.00024096,"INCLINATION":97.3665,"RA_OF_ASC_NODE":160.1413,"ARG_OF_PERICENTER":153.7003,"MEAN_ANOMALY":206.4382,"EPHEMERIS_TYPE":0,"CLASSIFICATION_TYPE":"U","NORAD_CAT_ID":51841,"ELEMENT_SET_NO":999,"REV_AT_EPOCH":22441,"BSTAR":0.0010852586,"MEAN_MOTION_DOT":0.00129444,"MEAN_MOTION_DDOT":0},{"OBJECT_NAME":"STARLINK-11238 [DTC]","OBJECT_ID":"2024-155E","EPOCH":"2026-03-09T22:53:55.027104","MEAN_MOTION":15.69729152,"ECCENTRICITY":0.00010749,"INCLINATION":53.1591,"RA_OF_ASC_NODE":339.9699,"ARG_OF_PERICENTER":110.2396,"MEAN_ANOMALY":249.8738,"EPHEMERIS_TYPE":0,"CLASSIFICATION_TYPE":"U","NORAD_CAT_ID":60928,"ELEMENT_SET_NO":999,"REV_AT_EPOCH":8849,"BSTAR":-3.4103674e-5,"MEAN_MOTION_DOT":-4.721e-5,"MEAN_MOTION_DDOT":0}]
